NORAD_CAT_ID,OBJECT_NAME,OBJECT_TYPE,EPOCH,MEAN_MOTION,ECCENTRICITY,INCLINATION,RA_OF_ASC_NODE,ARG_OF_PERICENTER,MEAN_ANOMALY,BSTAR,MEAN_MOTION_DOT,MEAN_MOTION_DDOT,TLE_LINE0,TLE_LINE1,TLE_LINE2,SEMIMAJOR_AXIS,PERIOD,APOGEE,PERIGEE,DECAYED
52114.0,STARLINK-3737,PAYLOAD,2023-12-19 12:13:25,15.08835484,0.0001341,53.2169,120.6461,102.7632,257.351,8.0156e-05,9.88e-06,0.0,0 STARLINK-3737,1 52114U 22029AC  23353.50932392  .00000988  00000-0  80156-4 0  9996,2 52114  53.2169 120.6461 0001341 102.7632 257.3510 15.08835484 98333,6917.894,95.438,540.687,538.832,0.0
52114.0,STARLINK-3737,PAYLOAD,2023-12-19 13:48:48,15.08833915,0.0001475,53.2183,120.3461,107.7171,252.3982,5.3663e-05,5.66e-06,0.0,0 STARLINK-3737,1 52114U 22029AC  23353.57556501  .00000566  00000-0  53663-4 0  9992,2 52114  53.2183 120.3461 0001475 107.7171 252.3982 15.08833915 98332,6917.899,95.438,540.784,538.744,0.0
52114.0,STARLINK-3737,PAYLOAD,2023-12-20 13:39:36,15.08840627,0.0001243,53.2171,115.8922,80.6775,279.4358,-3.0716e-05,-7.77e-06,0.0,0 STARLINK-3737,1 52114U 22029AC  23354.56916929 -.00000777  00000-0 -30716-4 0  9996,2 52114  53.2171 115.8922 0001243  80.6775 279.4358 15.08840627 98483,6917.878,95.438,540.603,538.884,0.0
52114.0,STARLINK-3737,PAYLOAD,2023-12-20 15:14:59,15.088425,0.0001319,53.2178,115.5939,89.7491,270.3652,1.0565e-05,-1.2e-06,0.0,0 STARLINK-3737,1 52114U 22029AC  23354.63540657 -.00000120  00000-0  10565-4 0  9996,2 52114  53.2178 115.5939 0001319  89.7491 270.3652 15.08842500 98506,6917.873,95.437,540.65,538.825,0.0
52114.0,STARLINK-3737,PAYLOAD,2023-12-21 11:55:00,15.08835483,0.0001326,53.218,111.7311,90.8933,269.2212,6.0163e-05,6.7e-06,0.0,0 STARLINK-3737,1 52114U 22029AC  23355.49653271  .00000670  00000-0  60163-4 0  9996,2 52114  53.2180 111.7311 0001326  90.8933 269.2212 15.08835483 98638,6917.894,95.438,540.677,538.842,0.0
52114.0,STARLINK-3737,PAYLOAD,2023-12-21 13:30:23,15.08837507,0.0001322,53.2176,111.4326,89.0568,271.0575,7.1362e-05,8.48e-06,0.0,0 STARLINK-3737,1 52114U 22029AC  23355.56277120  .00000848  00000-0  71362-4 0  9999,2 52114  53.2176 111.4326 0001322  89.0568 271.0575 15.08837507 98638,6917.888,95.438,540.668,538.838,0.0
52114.0,STARLINK-3737,PAYLOAD,2023-12-21 15:05:46,15.0883865,0.0001366,53.2181,111.1346,87.9142,272.2007,0.0001051,1.385e-05,0.0,0 STARLINK-3737,1 52114U 22029AC  23355.62900954  .00001385  00000-0  10510-3 0  9998,2 52114  53.2181 111.1346 0001366  87.9142 272.2007 15.08838650 98640,6917.885,95.438,540.694,538.805,0.0
52114.0,STARLINK-3737,PAYLOAD,2023-12-22 13:21:10,15.0884548,0.0001208,53.2169,106.9694,95.3034,264.8096,5.259e-05,5.49e-06,0.0,0 STARLINK-3737,1 52114U 22029AC  23356.55636874  .00000549  00000-0  52590-4 0  9994,2 52114  53.2169 106.9694 0001208  95.3034 264.8096 15.08845480 98781,6917.864,95.437,540.564,538.893,0.0
52114.0,STARLINK-3737,PAYLOAD,2023-12-22 14:56:33,15.0884887,0.0001291,53.2174,106.6723,80.99,279.1238,8.9757e-05,1.141e-05,0.0,0 STARLINK-3737,1 52114U 22029AC  23356.62260647  .00001141  00000-0  89757-4 0  9997,2 52114  53.2174 106.6723 0001291  80.9900 279.1238 15.08848870 98807,6917.853,95.437,540.611,538.825,0.0
52114.0,STARLINK-3737,PAYLOAD,2023-12-23 11:36:34,15.08843773,0.0001235,53.2168,102.8084,83.6873,276.426,2.4077e-05,9.5e-07,0.0,0 STARLINK-3737,1 52114U 22029AC  23357.48373216  .00000095  00000-0  24077-4 0  9990,2 52114  53.2168 102.8084 0001235  83.6873 276.4260 15.08843773 98931,6917.869,95.437,540.588,538.879,0.0
52114.0,STARLINK-3737,PAYLOAD,2023-12-23 14:47:20,15.08846699,0.0001313,53.2169,102.2136,78.7314,281.3826,5.7242e-05,6.23e-06,0.0,0 STARLINK-3737,1 52114U 22029AC  23357.61620971  .00000623  00000-0  57242-4 0  9995,2 52114  53.2169 102.2136 0001313  78.7314 281.3826 15.08846699 98940,6917.86,95.437,540.633,538.817,0.0
52114.0,STARLINK-3737,PAYLOAD,2023-12-23 16:22:43,15.08847752,0.0001297,53.2169,101.9162,80.1566,279.9572,6.2008e-05,6.99e-06,0.0,0 STARLINK-3737,1 52114U 22029AC  23357.68244863  .00000699  00000-0  62008-4 0  9993,2 52114  53.2169 101.9162 0001297  80.1566 279.9572 15.08847752 98955,6917.857,95.437,540.619,538.824,0.0
52114.0,STARLINK-3737,PAYLOAD,2023-12-24 14:38:06,15.08857545,0.0001407,53.2176,97.7526,73.5652,286.5494,0.00013514,1.864e-05,0.0,0 STARLINK-3737,1 52114U 22029AC  23358.60980141  .00001864  00000-0  13514-3 0  9994,2 52114  53.2176  97.7526 0001407  73.5652 286.5494 15.08857545 99098,6917.827,95.436,540.665,538.718,0.0
52114.0,STARLINK-3737,PAYLOAD,2023-12-25 11:18:08,15.08838306,0.0001045,53.2167,93.8894,69.043,291.0674,0.00014192,1.971e-05,0.0,0 STARLINK-3737,1 52114U 22029AC  23359.47093223  .00001971  00000-0  14192-3 0  9998,2 52114  53.2167  93.8894 0001045  69.0430 291.0674 15.08838306 99236,6917.886,95.438,540.473,539.028,0.0
52114.0,STARLINK-3737,PAYLOAD,2023-12-25 12:53:31,15.08846584,0.000135,53.217,93.5905,76.6284,283.4858,9.6609e-05,1.25e-05,0.0,0 STARLINK-3737,1 52114U 22029AC  23359.53716819  .00001250  00000-0  96609-4 0  9992,2 52114  53.2170  93.5905 0001350  76.6284 283.4858 15.08846584 99236,6917.86,95.437,540.659,538.791,0.0
52114.0,STARLINK-3737,PAYLOAD,2023-12-26 11:08:56,15.08836797,0.0001348,53.2167,89.4299,67.6811,292.4324,-4.1115e-07,-2.94e-06,0.0,0 STARLINK-3737,1 52114U 22029AC  23360.46453845 -.00000294  00000-0 -41115-6 0  9996,2 52114  53.2167  89.4299 0001348  67.6811 292.4324 15.08836797 99384,6917.89,95.438,540.688,538.823,0.0
52114.0,STARLINK-3737,PAYLOAD,2023-12-26 12:44:19,15.08839393,0.0001312,53.2169,89.1323,68.4633,291.6499,-3.0621e-06,-3.37e-06,0.0,0 STARLINK-3737,1 52114U 22029AC  23360.53077657 -.00000337  00000-0 -30621-5 0  9994,2 52114  53.2169  89.1323 0001312  68.4633 291.6499 15.08839393 99382,6917.882,95.438,540.655,538.84,0.0
52114.0,STARLINK-3737,PAYLOAD,2023-12-27 14:10:28,15.08849318,0.000128,53.217,84.3718,92.1638,267.9501,0.00010766,1.426e-05,0.0,0 STARLINK-3737,1 52114U 22029AC  23361.59060802  .00001426  00000-0  10766-3 0  9999,2 52114  53.2170  84.3718 0001280  92.1638 267.9501 15.08849318 99548,6917.852,95.437,540.602,538.831,0.0
52114.0,STARLINK-3737,PAYLOAD,2023-12-28 10:50:30,15.08838769,0.0001791,53.2179,80.5025,126.5946,233.5211,6.5201e-05,7.5e-06,0.0,0 STARLINK-3737,1 52114U 22029AC  23362.45173837  .00000750  00000-0  65201-4 0  9992,2 52114  53.2179  80.5025 0001791 126.5946 233.5211 15.08838769 99687,6917.884,95.438,540.988,538.51,0.0
52114.0,STARLINK-3737,PAYLOAD,2023-12-29 10:41:17,15.08838153,0.0001299,53.2169,76.0456,91.2878,268.8263,3.0083e-05,1.91e-06,0.0,0 STARLINK-3737,1 52114U 22029AC  23363.44534353  .00000191  00000-0  30083-4 0  9995,2 52114  53.2169  76.0456 0001299  91.2878 268.8263 15.08838153 99820,6917.886,95.438,540.65,538.852,0.0
52114.0,STARLINK-3737,PAYLOAD,2023-12-30 12:07:27,15.08844707,0.0001341,53.217,71.2876,81.9518,278.1626,0.00013873,1.921e-05,0.0,0 STARLINK-3737,1 52114U 22029AC  23364.50517877  .00001921  00000-0  13873-3 0  9994,2 52114  53.2170  71.2876 0001341  81.9518 278.1626 15.08844707 99997,6917.866,95.437,540.659,538.803,0.0
52114.0,STARLINK-3737,PAYLOAD,2023-12-30 13:42:50,15.08847384,0.000136,53.2168,70.9901,96.5833,263.5314,0.00015959,2.253e-05,0.0,0 STARLINK-3737,1 52114U 22029AC  23364.57141594  .00002253  00000-0  15959-3 0  9996,2 52114  53.2168  70.9901 0001360  96.5833 263.5314 15.08847384 99998,6917.858,95.437,540.664,538.782,0.0
52114.0,STARLINK-3737,PAYLOAD,2023-12-31 04:01:19,15.08831883,0.0001141,53.2174,68.3145,86.1727,273.9396,3.2811e-05,2.34e-06,0.0,0 STARLINK-3737,1 52114U 22029AC  23365.16759001  .00000234  00000-0  32811-4 0  9994,2 52114  53.2174  68.3145 0001141  86.1727 273.9396 15.08831883100096,6917.905,95.438,540.56,538.981,0.0
52114.0,STARLINK-3737,PAYLOAD,2023-12-31 11:58:15,15.0883618,0.000136,53.2167,66.8273,97.6196,262.495,7.0453e-05,8.33e-06,0.0,0 STARLINK-3737,1 52114U 22029AC  23365.49878792  .00000833  00000-0  70453-4 0  9998,2 52114  53.2167  66.8273 0001360  97.6196 262.4950 15.08836180100132,6917.892,95.438,540.698,538.816,0.0
52114.0,STARLINK-3737,PAYLOAD,2024-01-01 03:52:06,15.08842637,0.0001321,53.2168,63.8546,92.5229,267.5914,-1.0382e-05,-4.53e-06,0.0,0 STARLINK-3737,1 52114U 22029AC  24001.16118730 -.00000453  00000-0 -10382-4 0  9994,2 52114  53.2168  63.8546 0001321  92.5229 267.5914 15.08842637100243,6917.872,95.437,540.651,538.823,0.0
52114.0,STARLINK-3737,PAYLOAD,2024-01-01 10:13:38,15.08845049,0.0001413,53.2171,62.666,83.7961,276.3192,2.6811e-05,1.39e-06,0.0,0 STARLINK-3737,1 52114U 22029AC  24001.42614523  .00000139  00000-0  26811-4 0  9997,2 52114  53.2171  62.6660 0001413  83.7961 276.3192 15.08845049100277,6917.865,95.437,540.707,538.752,0.0
52114.0,STARLINK-3737,PAYLOAD,2024-01-02 10:04:25,15.08849957,0.0001711,53.2168,58.2072,71.2112,288.9065,0.00020926,3.045e-05,0.0,0 STARLINK-3737,1 52114U 22029AC  24002.41973836  .00003045  00000-0  20926-3 0  9991,2 52114  53.2168  58.2072 0001711  71.2112 288.9065 15.08849957100430,6917.85,95.437,540.899,538.531,0.0
52114.0,STARLINK-3737,PAYLOAD,2024-01-03 03:33:41,15.08827065,0.0001602,53.2179,54.9372,42.8494,317.2623,-2.9747e-05,-7.61e-06,0.0,0 STARLINK-3737,1 52114U 22029AC  24003.14839805 -.00000761  00000-0 -29747-4 0  9994,2 52114  53.2179  54.9372 0001602  42.8494 317.2623 15.08827065100548,6917.92,95.438,540.893,538.677,0.0
52114.0,STARLINK-3737,PAYLOAD,2024-01-03 09:55:13,15.08830127,0.0001578,53.2171,53.7465,81.8189,278.2982,-8.4821e-05,-1.637e-05,0.0,0 STARLINK-3737,1 52114U 22029AC  24003.41335183 -.00001637  00000-0 -84821-4 0  9991,2 52114  53.2171  53.7465 0001578  81.8189 278.2982 15.08830127100587,6917.911,95.438,540.867,538.684,0.0
52114.0,STARLINK-3737,PAYLOAD,2024-01-03 13:05:59,15.08833372,0.0001472,53.216,53.1486,78.5823,281.5334,-6.1608e-05,-1.268e-05,0.0,0 STARLINK-3737,1 52114U 22029AC  24003.54583039 -.00001268  00000-0 -61608-4 0  9998,2 52114  53.2160  53.1486 0001472  78.5823 281.5334 15.08833372100597,6917.901,95.438,540.784,538.747,0.0
